HULIANWANG DIGUI-113    
1 66923U 25285J   25364.77946449 -.00000158  00000+0 -52034-5 0  9992
2 66923  50.0101  43.7697 0000229 275.0446  85.0431 14.00986616  3445
CZ-8A R/B               
1 66924U 25285K   25364.54459949  .00000189  00000+0  12492-3 0  9996
2 66924  50.0087  40.3646 0119205 169.4987 190.8459 14.30510471  3470
STARLINK-35945          
1 66925U 25286A   25364.83336806 -.00065241  00000+0 -11735-2 0  9996
2 66925  53.1587 321.1673 0001229 101.3259 267.3381 15.49340295  4890
STARLINK-35942          
1 66926U 25286B   25364.58335647 -.02108336  00000+0 -42792-1 0  9992
2 66926  53.1587 322.4326 0001048 108.7085 270.9083 15.49258652  4857
STARLINK-35943          
1 66927U 25286C   25364.83336806  .00080014  00000+0  14348-2 0  9994
2 66927  53.1587 321.2316 0001408  89.6618 247.1654 15.49252847  4897
STARLINK-35944          
1 66928U 25286D   25364.83336806 -.00068609  00000+0 -12349-2 0  9992
2 66928  53.1588 321.2395 0001242  99.8858 233.0602 15.49342526  4892
STARLINK-36169          
1 66929U 25286E   25364.83336806 -.00074609  00000+0 -13445-2 0  9998
2 66929  53.1586 321.2278 0001441  98.1424 240.5554 15.49343967  4892
STARLINK-36206          
1 66930U 25286F   25364.83336806 -.00065958  00000+0 -11867-2 0  9993
2 66930  53.1586 321.2234 0001214  94.6350 245.9842 15.49337186  4898
STARLINK-36130          
1 66931U 25286G   25364.83336806 -.02021870  00000+0 -49448-1 0  9996
2 66931  53.1592 321.2442 0001430 112.0499 218.2528 15.43752887  4893
STARLINK-36177          
1 66932U 25286H   25364.83336806 -.00059691  00000+0 -10724-2 0  9993
2 66932  53.1587 321.2152 0001228 101.6273 242.8276 15.49335209  4899
STARLINK-36157          
1 66933U 25286J   25364.83336806 -.00075169  00000+0 -13548-2 0  9999
2 66933  53.1587 321.2115 0001420  93.3749 252.9902 15.49343632  4895
STARLINK-36153          
1 66934U 25286K   25364.83336806 -.01909403  00000+0 -37857-1 0  9996
2 66934  53.1586 321.2076 0001387 113.0093 235.2835 15.49580893  4896
