CCSDS_OMM_VERS = 2.0
CREATION_DATE  = 
ORIGINATOR     = 

OBJECT_NAME    = HULIANWANG DIGUI-113
OBJECT_ID      = 2025-285J
CENTER_NAME    = EARTH
REF_FRAME      = TEME
TIME_SYSTEM    = UTC
MEAN_ELEMENT_THEORY = SGP/SGP4

EPOCH          = 2025-12-30T18:42:25.731936
MEAN_MOTION    = 14.00986616
ECCENTRICITY   = .0000229
INCLINATION    = 50.0101
RA_OF_ASC_NODE = 43.7697
ARG_OF_PERICENTER = 275.0446
MEAN_ANOMALY   = 85.0431

EPHEMERIS_TYPE = 0
CLASSIFICATION_TYPE = U
NORAD_CAT_ID   = 66923
ELEMENT_SET_NO = 999
REV_AT_EPOCH   = 344
BSTAR          = -.52034E-5
MEAN_MOTION_DOT = -.158E-5
MEAN_MOTION_DDOT = 0

CCSDS_OMM_VERS = 2.0
CREATION_DATE  = 
ORIGINATOR     = 

OBJECT_NAME    = CZ-8A R/B
OBJECT_ID      = 2025-285K
CENTER_NAME    = EARTH
REF_FRAME      = TEME
TIME_SYSTEM    = UTC
MEAN_ELEMENT_THEORY = SGP/SGP4

EPOCH          = 2025-12-30T13:04:13.395936
MEAN_MOTION    = 14.30510471
ECCENTRICITY   = .0119205
INCLINATION    = 50.0087
RA_OF_ASC_NODE = 40.3646
ARG_OF_PERICENTER = 169.4987
MEAN_ANOMALY   = 190.8459

EPHEMERIS_TYPE = 0
CLASSIFICATION_TYPE = U
NORAD_CAT_ID   = 66924
ELEMENT_SET_NO = 999
REV_AT_EPOCH   = 347
BSTAR          = .12492E-3
MEAN_MOTION_DOT = .189E-5
MEAN_MOTION_DDOT = 0

CCSDS_OMM_VERS = 2.0
CREATION_DATE  = 
ORIGINATOR     = 

OBJECT_NAME    = STARLINK-35945
OBJECT_ID      = 2025-286A
CENTER_NAME    = EARTH
REF_FRAME      = TEME
TIME_SYSTEM    = UTC
MEAN_ELEMENT_THEORY = SGP/SGP4

EPOCH          = 2025-12-30T20:00:03.000384
MEAN_MOTION    = 15.49340295
ECCENTRICITY   = .0001229
INCLINATION    = 53.1587
RA_OF_ASC_NODE = 321.1673
ARG_OF_PERICENTER = 101.3259
MEAN_ANOMALY   = 267.3381

EPHEMERIS_TYPE = 0
CLASSIFICATION_TYPE = U
NORAD_CAT_ID   = 66925
ELEMENT_SET_NO = 999
REV_AT_EPOCH   = 489
BSTAR          = -.11735E-2
MEAN_MOTION_DOT = -.65241E-3
MEAN_MOTION_DDOT = 0

CCSDS_OMM_VERS = 2.0
CREATION_DATE  = 
ORIGINATOR     = 

OBJECT_NAME    = STARLINK-35942
OBJECT_ID      = 2025-286B
CENTER_NAME    = EARTH
REF_FRAME      = TEME
TIME_SYSTEM    = UTC
MEAN_ELEMENT_THEORY = SGP/SGP4

EPOCH          = 2025-12-30T14:00:01.999008
MEAN_MOTION    = 15.49258652
ECCENTRICITY   = .0001048
INCLINATION    = 53.1587
RA_OF_ASC_NODE = 322.4326
ARG_OF_PERICENTER = 108.7085
MEAN_ANOMALY   = 270.9083

EPHEMERIS_TYPE = 0
CLASSIFICATION_TYPE = U
NORAD_CAT_ID   = 66926
ELEMENT_SET_NO = 999
REV_AT_EPOCH   = 485
BSTAR          = -.42792E-1
MEAN_MOTION_DOT = -.2108336E-1
MEAN_MOTION_DDOT = 0

CCSDS_OMM_VERS = 2.0
CREATION_DATE  = 
ORIGINATOR     = 

OBJECT_NAME    = STARLINK-35943
OBJECT_ID      = 2025-286C
CENTER_NAME    = EARTH
REF_FRAME      = TEME
TIME_SYSTEM    = UTC
MEAN_ELEMENT_THEORY = SGP/SGP4

EPOCH          = 2025-12-30T20:00:03.000384
MEAN_MOTION    = 15.49252847
ECCENTRICITY   = .0001408
INCLINATION    = 53.1587
RA_OF_ASC_NODE = 321.2316
ARG_OF_PERICENTER = 89.6618
MEAN_ANOMALY   = 247.1654

EPHEMERIS_TYPE = 0
CLASSIFICATION_TYPE = U
NORAD_CAT_ID   = 66927
ELEMENT_SET_NO = 999
REV_AT_EPOCH   = 489
BSTAR          = .14348E-2
MEAN_MOTION_DOT = .80014E-3
MEAN_MOTION_DDOT = 0

CCSDS_OMM_VERS = 2.0
CREATION_DATE  = 
ORIGINATOR     = 

OBJECT_NAME    = STARLINK-35944
OBJECT_ID      = 2025-286D
CENTER_NAME    = EARTH
REF_FRAME      = TEME
TIME_SYSTEM    = UTC
MEAN_ELEMENT_THEORY = SGP/SGP4

EPOCH          = 2025-12-30T20:00:03.000384
MEAN_MOTION    = 15.49342526
ECCENTRICITY   = .0001242
INCLINATION    = 53.1588
RA_OF_ASC_NODE = 321.2395
ARG_OF_PERICENTER = 99.8858
MEAN_ANOMALY   = 233.0602

EPHEMERIS_TYPE = 0
CLASSIFICATION_TYPE = U
NORAD_CAT_ID   = 66928
ELEMENT_SET_NO = 999
REV_AT_EPOCH   = 489
BSTAR          = -.12349E-2
MEAN_MOTION_DOT = -.68609E-3
MEAN_MOTION_DDOT = 0

CCSDS_OMM_VERS = 2.0
CREATION_DATE  = 
ORIGINATOR     = 

OBJECT_NAME    = STARLINK-36169
OBJECT_ID      = 2025-286E
CENTER_NAME    = EARTH
REF_FRAME      = TEME
TIME_SYSTEM    = UTC
MEAN_ELEMENT_THEORY = SGP/SGP4

EPOCH          = 2025-12-30T20:00:03.000384
MEAN_MOTION    = 15.49343967
ECCENTRICITY   = .0001441
INCLINATION    = 53.1586
RA_OF_ASC_NODE = 321.2278
ARG_OF_PERICENTER = 98.1424
MEAN_ANOMALY   = 240.5554

EPHEMERIS_TYPE = 0
CLASSIFICATION_TYPE = U
NORAD_CAT_ID   = 66929
ELEMENT_SET_NO = 999
REV_AT_EPOCH   = 489
BSTAR          = -.13445E-2
MEAN_MOTION_DOT = -.74609E-3
MEAN_MOTION_DDOT = 0

CCSDS_OMM_VERS = 2.0
CREATION_DATE  = 
ORIGINATOR     = 

OBJECT_NAME    = STARLINK-36206
OBJECT_ID      = 2025-286F
CENTER_NAME    = EARTH
REF_FRAME      = TEME
TIME_SYSTEM    = UTC
MEAN_ELEMENT_THEORY = SGP/SGP4

EPOCH          = 2025-12-30T20:00:03.000384
MEAN_MOTION    = 15.49337186
ECCENTRICITY   = .0001214
INCLINATION    = 53.1586
RA_OF_ASC_NODE = 321.2234
ARG_OF_PERICENTER = 94.6350
MEAN_ANOMALY   = 245.9842

EPHEMERIS_TYPE = 0
CLASSIFICATION_TYPE = U
NORAD_CAT_ID   = 66930
ELEMENT_SET_NO = 999
REV_AT_EPOCH   = 489
BSTAR          = -.11867E-2
MEAN_MOTION_DOT = -.65958E-3
MEAN_MOTION_DDOT = 0

CCSDS_OMM_VERS = 2.0
CREATION_DATE  = 
ORIGINATOR     = 

OBJECT_NAME    = STARLINK-36130
OBJECT_ID      = 2025-286G
CENTER_NAME    = EARTH
REF_FRAME      = TEME
TIME_SYSTEM    = UTC
MEAN_ELEMENT_THEORY = SGP/SGP4

EPOCH          = 2025-12-30T20:00:03.000384
MEAN_MOTION    = 15.43752887
ECCENTRICITY   = .000143
INCLINATION    = 53.1592
RA_OF_ASC_NODE = 321.2442
ARG_OF_PERICENTER = 112.0499
MEAN_ANOMALY   = 218.2528

EPHEMERIS_TYPE = 0
CLASSIFICATION_TYPE = U
NORAD_CAT_ID   = 66931
ELEMENT_SET_NO = 999
REV_AT_EPOCH   = 489
BSTAR          = -.49448E-1
MEAN_MOTION_DOT = -.202187E-1
MEAN_MOTION_DDOT = 0

CCSDS_OMM_VERS = 2.0
CREATION_DATE  = 
ORIGINATOR     = 

OBJECT_NAME    = STARLINK-36177
OBJECT_ID      = 2025-286H
CENTER_NAME    = EARTH
REF_FRAME      = TEME
TIME_SYSTEM    = UTC
MEAN_ELEMENT_THEORY = SGP/SGP4

EPOCH          = 2025-12-30T20:00:03.000384
MEAN_MOTION    = 15.49335209
ECCENTRICITY   = .0001228
INCLINATION    = 53.1587
RA_OF_ASC_NODE = 321.2152
ARG_OF_PERICENTER = 101.6273
MEAN_ANOMALY   = 242.8276

EPHEMERIS_TYPE = 0
CLASSIFICATION_TYPE = U
NORAD_CAT_ID   = 66932
ELEMENT_SET_NO = 999
REV_AT_EPOCH   = 489
BSTAR          = -.10724E-2
MEAN_MOTION_DOT = -.59691E-3
MEAN_MOTION_DDOT = 0

CCSDS_OMM_VERS = 2.0
CREATION_DATE  = 
ORIGINATOR     = 

OBJECT_NAME    = STARLINK-36157
OBJECT_ID      = 2025-286J
CENTER_NAME    = EARTH
REF_FRAME      = TEME
TIME_SYSTEM    = UTC
MEAN_ELEMENT_THEORY = SGP/SGP4

EPOCH          = 2025-12-30T20:00:03.000384
MEAN_MOTION    = 15.49343632
ECCENTRICITY   = .000142
INCLINATION    = 53.1587
RA_OF_ASC_NODE = 321.2115
ARG_OF_PERICENTER = 93.3749
MEAN_ANOMALY   = 252.9902

EPHEMERIS_TYPE = 0
CLASSIFICATION_TYPE = U
NORAD_CAT_ID   = 66933
ELEMENT_SET_NO = 999
REV_AT_EPOCH   = 489
BSTAR          = -.13548E-2
MEAN_MOTION_DOT = -.75169E-3
MEAN_MOTION_DDOT = 0

CCSDS_OMM_VERS = 2.0
CREATION_DATE  = 
ORIGINATOR     = 

OBJECT_NAME    = STARLINK-36153
OBJECT_ID      = 2025-286K
CENTER_NAME    = EARTH
REF_FRAME      = TEME
TIME_SYSTEM    = UTC
MEAN_ELEMENT_THEORY = SGP/SGP4

EPOCH          = 2025-12-30T20:00:03.000384
MEAN_MOTION    = 15.49580893
ECCENTRICITY   = .0001387
INCLINATION    = 53.1586
RA_OF_ASC_NODE = 321.2076
ARG_OF_PERICENTER = 113.0093
MEAN_ANOMALY   = 235.2835

EPHEMERIS_TYPE = 0
CLASSIFICATION_TYPE = U
NORAD_CAT_ID   = 66934
ELEMENT_SET_NO = 999
REV_AT_EPOCH   = 489
BSTAR          = -.37857E-1
MEAN_MOTION_DOT = -.1909403E-1
MEAN_MOTION_DDOT = 0

